[{"OBJECT_NAME":"ONEWEB-0506","OBJECT_ID":"2022-138M","EPOCH":"2026-03-09T16:53:46.892544","MEAN_MOTION":13.19725453,"ECCENTRICITY":0.00015959,"INCLINATION":87.9238,"RA_OF_ASC_NODE":324.778,"ARG_OF_PERICENTER":91.0951,"MEAN_ANOMALY":269.0364,"EPHEMERIS_TYPE":0,"CLASSIFICATION_TYPE":"U","NORAD_CAT_ID":54124,"ELEMENT_SET_NO":999,"REV_AT_EPOCH":16368,"BSTAR":-0.00052081839,"MEAN_MOTION_DOT":-1.96e-6,"MEAN_MOTION_DDOT":0},{"OBJECT_NAME":"TUBSAT B","OBJECT_ID":"1994-003C","EPOCH":"2026-03-09T18:44:33.482976","MEAN_MOTION":13.17152588,"ECCENTRICITY":0.00174374,"INCLINATION":82.5657,"RA_OF_ASC_NODE":156.0592,"ARG_OF_PERICENTER":90.3714,"MEAN_ANOMALY":28.1979,"EPHEMERIS_TYPE":0,"CLASSIFICATION_TYPE":"U","NORAD_CAT_ID":22971,"ELEMENT_SET_NO":999,"REV_AT_EPOCH":54398,"BSTAR":0.00029992922,"MEAN_MOTION_DOT":1.28e-6,"MEAN_MOTION_DDOT":0}]
